OBJECT_NAME,OBJECT_ID,EPOCH,MEAN_MOTION,ECCENTRICITY,INCLINATION,RA_OF_ASC_NODE,ARG_OF_PERICENTER,MEAN_ANOMALY,EPHEMERIS_TYPE,CLASSIFICATION_TYPE,NORAD_CAT_ID,ELEMENT_SET_NO,REV_AT_EPOCH,BSTAR,MEAN_MOTION_DOT,MEAN_MOTION_DDOT
KUZGTU 1 (RS47S),2023-091AV,2026-07-22T12:59:32.402400,15.30584045,.00093562,97.5043,268.3961,338.5805,21.5043,0,U,57217,999,16978,.42466939E-3,.12501E-3,0
SONATE-2,2024-043Q,2026-07-22T08:28:09.021216,15.61279179,.00064552,97.5558,355.9850,82.8392,277.3598,0,U,59112,999,13337,.55204841E-3,.46941E-3,0
MESAT1,2024-125G,2026-07-22T03:23:22.111296,15.67141012,.00105136,97.2240,61.5144,91.0035,269.2431,0,U,60209,999,11503,.7281402E-3,.78453E-3,0
OOV-CUBE (TUBSAT-30),2024-128F,2026-07-22T06:04:30.835488,15.02894414,.0040191,61.9942,103.2884,141.6330,218.7632,0,U,60240,999,11138,.12811368E-3,.1541E-4,0
COLIBRI-S (RS67S),2024-199M,2026-07-22T14:30:59.106528,15.49090310,.00096344,97.2942,77.8081,138.3793,221.8194,0,U,61746,999,14289,.46535699E-3,.25257E-3,0
HORS 3 (RS81S),2024-199U,2026-07-22T14:01:08.635008,15.57330022,.00078848,97.2923,80.1830,134.4591,225.7310,0,U,61753,999,14306,.60844723E-3,.4458E-3,0
HORS 4 (RS82S),2024-199V,2026-07-22T13:19:54.662592,15.63001329,.00076127,97.2861,81.6074,129.2229,230.9706,0,U,61754,999,14316,.67326685E-3,.6135E-3,0
SIT-2086,2024-199AF,2026-07-22T14:31:44.624640,15.55444299,.00086556,97.2882,80.5580,123.3105,236.8980,0,U,61764,999,13993,.61175544E-3,.41802E-3,0
HYPERVIEW 1G (RS66S),2024-199AP,2026-07-22T13:22:02.133696,15.88232748,.00077728,97.2772,85.3587,131.7706,228.4232,0,U,61772,999,14026,.35411314E-3,.95997E-3,.5381336E-5
ALTAIR (RS65S),2024-199AW,2026-07-22T14:03:55.586592,15.37611203,.00128835,97.2986,72.7101,169.8153,190.3356,0,U,61779,999,14255,.26644694E-3,.9782E-4,0
ASRTU-1 (AO-123),2024-199AY,2026-07-22T14:33:31.668192,15.36130284,.00138281,97.2958,71.9610,173.5854,186.5570,0,U,61781,999,13936,.2285202E-3,.7987E-4,0
SAMSAT-IONOSPHERE (RS75S),2024-199BB,2026-07-22T14:44:22.639488,15.60692775,.00099735,97.2886,80.4056,138.0639,222.1384,0,U,61784,999,14308,.65532664E-3,.54633E-3,0
RTU MIREA 1 (RS51S),2024-199BC,2026-07-22T14:44:52.016352,15.65030579,.0009917,97.2871,81.4425,133.9921,226.2158,0,U,61785,999,14000,.73419651E-3,.72634E-3,0
TEVEL2-4,2025-052D,2026-07-22T04:24:32.969952,15.35744990,.00028764,97.3852,99.6543,37.6826,322.4619,0,U,63213,999,7548,.6152178E-3,.21346E-3,0
TEVEL2-5,2025-052E,2026-07-21T22:44:39.677280,15.35543714,.0002922,97.3850,99.3550,40.5078,319.6383,0,U,63214,999,7544,.58209566E-3,.20059E-3,0
TEVEL2-6,2025-052F,2026-07-22T13:08:07.820736,15.35532264,.00029206,97.3857,99.9412,41.7305,318.4161,0,U,63215,999,7553,.59746306E-3,.20585E-3,0
TEVEL2-1,2025-052H,2026-07-22T04:45:06.514848,15.34943207,.00036051,97.3828,99.1724,45.0225,315.1310,0,U,63217,999,7546,.59832333E-3,.20232E-3,0
TEVEL2-3,2025-052J,2026-07-22T04:35:25.291680,15.35007108,.00035371,97.3841,99.1918,48.5551,311.5996,0,U,63218,999,7546,.60877449E-3,.20629E-3,0
TEVEL2-2,2025-052K,2026-07-22T06:19:05.593152,15.34957239,.00036751,97.3827,99.2408,45.1461,315.0081,0,U,63219,999,7547,.60329009E-3,.2041E-3,0
OTP-2,2025-052AB,2026-07-22T09:58:14.042784,15.24409073,.0007752,97.3822,95.3222,51.1719,309.0210,0,U,63235,999,7523,.33764739E-3,.8216E-4,0
TEVEL2-9,2025-052AD,2026-07-21T05:49:15.661632,15.32853308,.00070834,97.3890,97.5180,39.6084,320.5675,0,U,63237,999,7524,.41132929E-3,.12991E-3,0
TEVEL2-7,2025-052AE,2026-07-22T11:10:22.896192,15.32575977,.00070454,97.3893,98.6402,36.4367,323.7354,0,U,63238,999,7542,.57417171E-3,.18018E-3,0
TEVEL2-8,2025-052AF,2026-07-21T16:34:29.350272,15.32536130,.00072056,97.3893,97.8424,39.3565,320.8199,0,U,63239,999,7530,.50898615E-3,.1594E-3,0
INNOSAT 16 (RS92S7),2025-155C,2026-07-22T13:13:29.608896,15.25795608,.00122391,97.4588,170.5798,66.4417,293.8105,0,U,64878,999,8606,.22798778E-3,.5764E-4,0
GEOSCAN 6 (RS92S6),2025-155D,2026-07-22T13:16:13.932192,15.30759001,.00095817,97.4577,172.2624,61.3623,298.8580,0,U,64879,999,8617,.37641586E-3,.11132E-3,0
GEOSCAN 1 (RS92S1),2025-155E,2026-07-22T12:58:50.752416,15.31414315,.00095125,97.4573,172.4306,61.7752,298.4449,0,U,64880,999,8618,.40442835E-3,.12214E-3,0
239ALFEROV (RS61S),2025-155F,2026-07-22T14:06:39.296448,15.33823444,.00092074,97.4572,173.1640,61.8397,298.3774,0,U,64881,999,8623,.50289955E-3,.16409E-3,0
GEOSCAN 2 (RS92S2),2025-155Q,2026-07-22T12:41:02.757696,15.31671409,.00085171,97.4572,172.5843,52.0767,308.1243,0,U,64890,999,8619,.39718223E-3,.12087E-3,0
GEOSCAN 5 (RS92S5),2025-155R,2026-07-22T13:40:31.688544,15.34125476,.00082895,97.4565,173.2963,67.1582,293.0535,0,U,64891,999,8624,.46950868E-3,.15455E-3,0
GEOSCAN 4 (RS92S4),2025-155S,2026-07-22T13:12:22.471776,15.34296457,.00081726,97.4570,173.3358,67.4760,292.7347,0,U,64892,999,8624,.49444112E-3,.1637E-3,0
