KUZGTU 1 (RS47S)        
1 57217U 23091AV  26203.54134725  .00012501  00000+0  42467-3 0  9995
2 57217  97.5043 268.3961 0009356 338.5805  21.5043 15.30584045169783
SONATE-2                
1 59112U 24043Q   26203.35288219  .00046941  00000+0  55205-3 0  9995
2 59112  97.5558 355.9850 0006455  82.8392 277.3598 15.61279179133372
MESAT1                  
1 60209U 24125G   26203.14122814  .00078453  00000+0  72814-3 0  9998
2 60209  97.2240  61.5144 0010513  91.0035 269.2431 15.67141012115037
OOV-CUBE (TUBSAT-30)    
1 60240U 24128F   26203.25313467  .00001541  00000+0  12811-3 0  9999
2 60240  61.9942 103.2884 0040191 141.6330 218.7632 15.02894414111385
COLIBRI-S (RS67S)       
1 61746U 24199M   26203.60485077  .00025257  00000+0  46536-3 0  9996
2 61746  97.2942  77.8081 0009634 138.3793 221.8194 15.49090310142899
HORS 3 (RS81S)          
1 61753U 24199U   26203.58412772  .00044580  00000+0  60845-3 0  9992
2 61753  97.2923  80.1830 0007884 134.4591 225.7310 15.57330022143062
HORS 4 (RS82S)          
1 61754U 24199V   26203.55549378  .00061350  00000+0  67327-3 0  9999
2 61754  97.2861  81.6074 0007612 129.2229 230.9706 15.63001329143169
SIT-2086                
1 61764U 24199AF  26203.60537760  .00041802  00000+0  61176-3 0  9994
2 61764  97.2882  80.5580 0008655 123.3105 236.8980 15.55444299139936
HYPERVIEW 1G (RS66S)    
1 61772U 24199AP  26203.55696914  .00095997  53813-5  35411-3 0  9997
2 61772  97.2772  85.3587 0007772 131.7706 228.4232 15.88232748140267
ALTAIR (RS65S)          
1 61779U 24199AW  26203.58606003  .00009782  00000+0  26645-3 0  9997
2 61779  97.2986  72.7101 0012883 169.8153 190.3356 15.37611203142559
ASRTU-1 (AO-123)        
1 61781U 24199AY  26203.60661653  .00007987  00000+0  22852-3 0  9996
2 61781  97.2958  71.9610 0013828 173.5854 186.5570 15.36130284139361
SAMSAT-IONOSPHERE (RS7*)
1 61784U 24199BB  26203.61415092  .00054633  00000+0  65533-3 0  9997
2 61784  97.2886  80.4056 0009973 138.0639 222.1384 15.60692775143085
RTU MIREA 1 (RS51S)     
1 61785U 24199BC  26203.61449093  .00072634  00000+0  73420-3 0  9991
2 61785  97.2871  81.4425 0009917 133.9921 226.2158 15.65030579140003
TEVEL2-4                
1 63213U 25052D   26203.18371493  .00021346  00000+0  61522-3 0  9992
2 63213  97.3852  99.6543 0002876  37.6826 322.4619 15.35744990 75480
TEVEL2-5                
1 63214U 25052E   26202.94768145  .00020059  00000+0  58210-3 0  9990
2 63214  97.3850  99.3550 0002922  40.5078 319.6383 15.35543714 75441
TEVEL2-6                
1 63215U 25052F   26203.54731274  .00020585  00000+0  59746-3 0  9990
2 63215  97.3857  99.9412 0002920  41.7305 318.4161 15.35532264 75535
TEVEL2-1                
1 63217U 25052H   26203.19799207  .00020232  00000+0  59832-3 0  9998
2 63217  97.3828  99.1724 0003605  45.0225 315.1310 15.34943207 75466
TEVEL2-3                
1 63218U 25052J   26203.19126495  .00020629  00000+0  60877-3 0  9993
2 63218  97.3841  99.1918 0003537  48.5551 311.5996 15.35007108 75463
TEVEL2-2                
1 63219U 25052K   26203.26325918  .00020410  00000+0  60329-3 0  9993
2 63219  97.3827  99.2408 0003675  45.1461 315.0081 15.34957239 75472
OTP-2                   
1 63235U 25052AB  26203.41544031  .00008216  00000+0  33765-3 0  9991
2 63235  97.3822  95.3222 0007752  51.1719 309.0210 15.24409073 75237
TEVEL2-9                
1 63237U 25052AD  26202.24254238  .00012991  00000+0  41133-3 0  9993
2 63237  97.3890  97.5180 0007083  39.6084 320.5675 15.32853308 75241
TEVEL2-7                
1 63238U 25052AE  26203.46554278  .00018018  00000+0  57417-3 0  9994
2 63238  97.3893  98.6402 0007045  36.4367 323.7354 15.32575977 75423
TEVEL2-8                
1 63239U 25052AF  26202.69061748  .00015940  00000+0  50899-3 0  9992
2 63239  97.3893  97.8424 0007205  39.3565 320.8199 15.32536130 75309
INNOSAT 16 (RS92S7)     
1 64878U 25155C   26203.55103714  .00005764  00000+0  22799-3 0  9993
2 64878  97.4588 170.5798 0012239  66.4417 293.8105 15.25795608 86064
GEOSCAN 6 (RS92S6)      
1 64879U 25155D   26203.55293903  .00011132  00000+0  37642-3 0  9993
2 64879  97.4577 172.2624 0009581  61.3623 298.8580 15.30759001 86176
GEOSCAN 1 (RS92S1)      
1 64880U 25155E   26203.54086519  .00012214  00000+0  40443-3 0  9992
2 64880  97.4573 172.4306 0009512  61.7752 298.4449 15.31414315 86182
239ALFEROV (RS61S)      
1 64881U 25155F   26203.58795482  .00016409  00000+0  50290-3 0  9994
2 64881  97.4572 173.1640 0009207  61.8397 298.3774 15.33823444 86233
GEOSCAN 2 (RS92S2)      
1 64890U 25155Q   26203.52850414  .00012087  00000+0  39718-3 0  9995
2 64890  97.4572 172.5843 0008517  52.0767 308.1243 15.31671409 86193
GEOSCAN 5 (RS92S5)      
1 64891U 25155R   26203.56981121  .00015455  00000+0  46951-3 0  9999
2 64891  97.4565 173.2963 0008289  67.1582 293.0535 15.34125476 86248
GEOSCAN 4 (RS92S4)      
1 64892U 25155S   26203.55026009  .00016370  00000+0  49444-3 0  9991
2 64892  97.4570 173.3358 0008172  67.4760 292.7347 15.34296457 86241
